STARLINK-5756           
1 55598U 23020AF  25343.74483463  .00001633  00000+0  13591-3 0  9999
2 55598  43.0027 120.8613 0001466 269.1358  90.9317 15.02537586155532
STARLINK-5761           
1 55599U 23020AG  25343.74148681 -.00013213  00000+0 -96337-3 0  9998
2 55599  43.0033 120.8388 0001431 259.6909 100.3772 15.02594956155532
STARLINK-5755           
1 55600U 23020AH  25343.66281951  .00001686  00000+0  13978-3 0  9999
2 55600  43.0037 121.1271 0001006 266.1780  93.8947 15.02546482155522
STARLINK-5744           
1 55601U 23020AJ  25344.13777531  .00000950  00000+0  85388-4 0  9995
2 55601  43.0032 130.7867 0001189 272.4270  87.6436 15.02535551155452
STARLINK-5764           
1 55602U 23020AK  25343.67280887  .00000189  00000+0  29103-4 0  9994
2 55602  43.0036 121.1847 0001335 270.7806  89.2883 15.02535181155529
STARLINK-5735           
1 55603U 23020AL  25343.46671550  .00001025  00000+0  90946-4 0  9996
2 55603  43.0038 122.2392 0001338 273.0886  86.9803 15.02537785155490
STARLINK-5748           
1 55604U 23020AM  25343.63533093 -.00003420  00000+0 -23825-3 0  9999
2 55604  43.0034 107.9121 0001292 270.4834  89.5860 15.02537612155671
STARLINK-5725           
1 55605U 23020AN  25343.66171138  .00000737  00000+0  69621-4 0  9992
2 55605  43.0027 121.1153 0001327 275.2073  84.8618 15.02540823155525
STARLINK-5700           
1 55607U 23020AQ  25343.45561938  .00001524  00000+0  12788-3 0  9998
2 55607  43.0037 122.1534 0001283 268.2250  91.8446 15.02541774155491
STARLINK-5726           
1 55608U 23020AR  25343.78578923  .00001883  00000+0  15445-3 0  9998
2 55608  43.0029 120.3306 0001365 267.4382  92.6304 15.02535881155548
STARLINK-5719           
1 55609U 23020AS  25343.65838225  .00000303  00000+0  37525-4 0  9999
2 55609  43.0033 121.0925 0001317 268.4901  91.5791 15.02538076155529
STARLINK-5722           
1 55610U 23020AT  25343.44562682  .00000578  00000+0  57833-4 0  9997
2 55610  43.0029 122.0795 0001228 273.4967  86.5735 15.02537562155498
STARLINK-5730           
1 55611U 23020AU  25343.44341023 -.00000845  00000+0 -47467-4 0  9993
2 55611  43.0032 122.0639 0001342 271.3611  88.7078 15.02537381155493
STARLINK-5734           
1 55612U 23020AV  25343.77470007  .00001075  00000+0  94644-4 0  9998
2 55612  43.0019 120.2462 0001332 268.1396  91.9294 15.02533566155549
STARLINK-5714           
1 55614U 23020AX  25344.31119647  .00000589  00000+0  58671-4 0  9990
2 55614  43.0044 104.3348 0001534 268.8873  91.1793 15.02538379155774
STARLINK-5712           
1 55615U 23020AY  25343.43897089  .00000231  00000+0  32179-4 0  9995
2 55615  43.0028 122.0267 0001436 269.6137  90.4541 15.02533958155497
