[{"OBJECT_NAME":"STARLINK-5756","OBJECT_ID":"2023-020AF","EPOCH":"2025-12-09T17:52:33.712032","MEAN_MOTION":15.02537586,"ECCENTRICITY":0.0001466,"INCLINATION":43.0027,"RA_OF_ASC_NODE":120.8613,"ARG_OF_PERICENTER":269.1358,"MEAN_ANOMALY":90.9317,"EPHEMERIS_TYPE":0,"CLASSIFICATION_TYPE":"U","NORAD_CAT_ID":55598,"ELEMENT_SET_NO":999,"REV_AT_EPOCH":15553,"BSTAR":0.00013591373,"MEAN_MOTION_DOT":1.633e-5,"MEAN_MOTION_DDOT":0},{"OBJECT_NAME":"STARLINK-5761","OBJECT_ID":"2023-020AG","EPOCH":"2025-12-09T17:47:44.460384","MEAN_MOTION":15.02594956,"ECCENTRICITY":0.00014315,"INCLINATION":43.0033,"RA_OF_ASC_NODE":120.8388,"ARG_OF_PERICENTER":259.6909,"MEAN_ANOMALY":100.3772,"EPHEMERIS_TYPE":0,"CLASSIFICATION_TYPE":"U","NORAD_CAT_ID":55599,"ELEMENT_SET_NO":999,"REV_AT_EPOCH":15553,"BSTAR":-0.00096336938,"MEAN_MOTION_DOT":-0.00013213,"MEAN_MOTION_DDOT":0},{"OBJECT_NAME":"STARLINK-5755","OBJECT_ID":"2023-020AH","EPOCH":"2025-12-09T15:54:27.605664","MEAN_MOTION":15.02546482,"ECCENTRICITY":0.0001006,"INCLINATION":43.0037,"RA_OF_ASC_NODE":121.1271,"ARG_OF_PERICENTER":266.178,"MEAN_ANOMALY":93.8947,"EPHEMERIS_TYPE":0,"CLASSIFICATION_TYPE":"U","NORAD_CAT_ID":55600,"ELEMENT_SET_NO":999,"REV_AT_EPOCH":15552,"BSTAR":0.00013978,"MEAN_MOTION_DOT":1.686e-5,"MEAN_MOTION_DDOT":0},{"OBJECT_NAME":"STARLINK-5744","OBJECT_ID":"2023-020AJ","EPOCH":"2025-12-10T03:18:23.786784","MEAN_MOTION":15.02535551,"ECCENTRICITY":0.00011899,"INCLINATION":43.0032,"RA_OF_ASC_NODE":130.7867,"ARG_OF_PERICENTER":272.427,"MEAN_ANOMALY":87.6436,"EPHEMERIS_TYPE":0,"CLASSIFICATION_TYPE":"U","NORAD_CAT_ID":55601,"ELEMENT_SET_NO":999,"REV_AT_EPOCH":15545,"BSTAR":8.5387926e-5,"MEAN_MOTION_DOT":9.5e-6,"MEAN_MOTION_DDOT":0},{"OBJECT_NAME":"STARLINK-5764","OBJECT_ID":"2023-020AK","EPOCH":"2025-12-09T16:08:50.686368","MEAN_MOTION":15.02535181,"ECCENTRICITY":0.0001335,"INCLINATION":43.0036,"RA_OF_ASC_NODE":121.1847,"ARG_OF_PERICENTER":270.7806,"MEAN_ANOMALY":89.2883,"EPHEMERIS_TYPE":0,"CLASSIFICATION_TYPE":"U","NORAD_CAT_ID":55602,"ELEMENT_SET_NO":999,"REV_AT_EPOCH":15552,"BSTAR":2.9103e-5,"MEAN_MOTION_DOT":1.89e-6,"MEAN_MOTION_DDOT":0},{"OBJECT_NAME":"STARLINK-5735","OBJECT_ID":"2023-020AL","EPOCH":"2025-12-09T11:12:04.219200","MEAN_MOTION":15.02537785,"ECCENTRICITY":0.00013383,"INCLINATION":43.0038,"RA_OF_ASC_NODE":122.2392,"ARG_OF_PERICENTER":273.0886,"MEAN_ANOMALY":86.9803,"EPHEMERIS_TYPE":0,"CLASSIFICATION_TYPE":"U","NORAD_CAT_ID":55603,"ELEMENT_SET_NO":999,"REV_AT_EPOCH":15549,"BSTAR":9.0945668e-5,"MEAN_MOTION_DOT":1.025e-5,"MEAN_MOTION_DDOT":0},{"OBJECT_NAME":"STARLINK-5748","OBJECT_ID":"2023-020AM","EPOCH":"2025-12-09T15:14:52.592352","MEAN_MOTION":15.02537612,"ECCENTRICITY":0.0001292,"INCLINATION":43.0034,"RA_OF_ASC_NODE":107.9121,"ARG_OF_PERICENTER":270.4834,"MEAN_ANOMALY":89.586,"EPHEMERIS_TYPE":0,"CLASSIFICATION_TYPE":"U","NORAD_CAT_ID":55604,"ELEMENT_SET_NO":999,"REV_AT_EPOCH":15567,"BSTAR":-0.00023825,"MEAN_MOTION_DOT":-3.42e-5,"MEAN_MOTION_DDOT":0},{"OBJECT_NAME":"STARLINK-5725","OBJECT_ID":"2023-020AN","EPOCH":"2025-12-09T15:52:51.863232","MEAN_MOTION":15.02540823,"ECCENTRICITY":0.0001327,"INCLINATION":43.0027,"RA_OF_ASC_NODE":121.1153,"ARG_OF_PERICENTER":275.2073,"MEAN_ANOMALY":84.8618,"EPHEMERIS_TYPE":0,"CLASSIFICATION_TYPE":"U","NORAD_CAT_ID":55605,"ELEMENT_SET_NO":999,"REV_AT_EPOCH":15552,"BSTAR":6.9621e-5,"MEAN_MOTION_DOT":7.37e-6,"MEAN_MOTION_DDOT":0},{"OBJECT_NAME":"STARLINK-5700","OBJECT_ID":"2023-020AQ","EPOCH":"2025-12-09T10:56:05.514432","MEAN_MOTION":15.02541774,"ECCENTRICITY":0.00012832,"INCLINATION":43.0037,"RA_OF_ASC_NODE":122.1534,"ARG_OF_PERICENTER":268.225,"MEAN_ANOMALY":91.8446,"EPHEMERIS_TYPE":0,"CLASSIFICATION_TYPE":"U","NORAD_CAT_ID":55607,"ELEMENT_SET_NO":999,"REV_AT_EPOCH":15549,"BSTAR":0.00012788142,"MEAN_MOTION_DOT":1.524e-5,"MEAN_MOTION_DDOT":0},{"OBJECT_NAME":"STARLINK-5726","OBJECT_ID":"2023-020AR","EPOCH":"2025-12-09T18:51:32.189472","MEAN_MOTION":15.02535881,"ECCENTRICITY":0.00013659,"INCLINATION":43.0029,"RA_OF_ASC_NODE":120.3306,"ARG_OF_PERICENTER":267.4382,"MEAN_ANOMALY":92.6304,"EPHEMERIS_TYPE":0,"CLASSIFICATION_TYPE":"U","NORAD_CAT_ID":55608,"ELEMENT_SET_NO":999,"REV_AT_EPOCH":15554,"BSTAR":0.00015445188,"MEAN_MOTION_DOT":1.883e-5,"MEAN_MOTION_DDOT":0},{"OBJECT_NAME":"STARLINK-5719","OBJECT_ID":"2023-020AS","EPOCH":"2025-12-09T15:48:04.226400","MEAN_MOTION":15.02538076,"ECCENTRICITY":0.0001317,"INCLINATION":43.0033,"RA_OF_ASC_NODE":121.0925,"ARG_OF_PERICENTER":268.4901,"MEAN_ANOMALY":91.5791,"EPHEMERIS_TYPE":0,"CLASSIFICATION_TYPE":"U","NORAD_CAT_ID":55609,"ELEMENT_SET_NO":999,"REV_AT_EPOCH":15552,"BSTAR":3.7525e-5,"MEAN_MOTION_DOT":3.03e-6,"MEAN_MOTION_DDOT":0},{"OBJECT_NAME":"STARLINK-5722","OBJECT_ID":"2023-020AT","EPOCH":"2025-12-09T10:41:42.157248","MEAN_MOTION":15.02537562,"ECCENTRICITY":0.00012289,"INCLINATION":43.0029,"RA_OF_ASC_NODE":122.0795,"ARG_OF_PERICENTER":273.4967,"MEAN_ANOMALY":86.5735,"EPHEMERIS_TYPE":0,"CLASSIFICATION_TYPE":"U","NORAD_CAT_ID":55610,"ELEMENT_SET_NO":999,"REV_AT_EPOCH":15549,"BSTAR":5.7833399e-5,"MEAN_MOTION_DOT":5.78e-6,"MEAN_MOTION_DDOT":0},{"OBJECT_NAME":"STARLINK-5730","OBJECT_ID":"2023-020AU","EPOCH":"2025-12-09T10:38:30.643872","MEAN_MOTION":15.02537381,"ECCENTRICITY":0.0001342,"INCLINATION":43.0032,"RA_OF_ASC_NODE":122.0639,"ARG_OF_PERICENTER":271.3611,"MEAN_ANOMALY":88.7078,"EPHEMERIS_TYPE":0,"CLASSIFICATION_TYPE":"U","NORAD_CAT_ID":55611,"ELEMENT_SET_NO":999,"REV_AT_EPOCH":15549,"BSTAR":-4.7467198e-5,"MEAN_MOTION_DOT":-8.45e-6,"MEAN_MOTION_DDOT":0},{"OBJECT_NAME":"STARLINK-5734","OBJECT_ID":"2023-020AV","EPOCH":"2025-12-09T18:35:34.086048","MEAN_MOTION":15.02533566,"ECCENTRICITY":0.00013324,"INCLINATION":43.0019,"RA_OF_ASC_NODE":120.2462,"ARG_OF_PERICENTER":268.1396,"MEAN_ANOMALY":91.9294,"EPHEMERIS_TYPE":0,"CLASSIFICATION_TYPE":"U","NORAD_CAT_ID":55612,"ELEMENT_SET_NO":999,"REV_AT_EPOCH":15554,"BSTAR":9.4643595e-5,"MEAN_MOTION_DOT":1.075e-5,"MEAN_MOTION_DDOT":0},{"OBJECT_NAME":"STARLINK-5714","OBJECT_ID":"2023-020AX","EPOCH":"2025-12-10T07:28:07.375008","MEAN_MOTION":15.02538379,"ECCENTRICITY":0.00015346,"INCLINATION":43.0044,"RA_OF_ASC_NODE":104.3348,"ARG_OF_PERICENTER":268.8873,"MEAN_ANOMALY":91.1793,"EPHEMERIS_TYPE":0,"CLASSIFICATION_TYPE":"U","NORAD_CAT_ID":55614,"ELEMENT_SET_NO":999,"REV_AT_EPOCH":15577,"BSTAR":5.8670706e-5,"MEAN_MOTION_DOT":5.89e-6,"MEAN_MOTION_DDOT":0},{"OBJECT_NAME":"STARLINK-5712","OBJECT_ID":"2023-020AY","EPOCH":"2025-12-09T10:32:07.084896","MEAN_MOTION":15.02533958,"ECCENTRICITY":0.00014362,"INCLINATION":43.0028,"RA_OF_ASC_NODE":122.0267,"ARG_OF_PERICENTER":269.6137,"MEAN_ANOMALY":90.4541,"EPHEMERIS_TYPE":0,"CLASSIFICATION_TYPE":"U","NORAD_CAT_ID":55615,"ELEMENT_SET_NO":999,"REV_AT_EPOCH":15549,"BSTAR":3.2179016e-5,"MEAN_MOTION_DOT":2.31e-6,"MEAN_MOTION_DDOT":0}]
